


*******************************************************************************
Ephemeris / MAIL_REQUEST Sun Aug  9 09:37:11 2015 Pasadena, USA  / Horizons
*******************************************************************************
Target body name: Mars Barycenter (4)             {source: DE-0431LE-0431}
Center body name: Solar System Barycenter (0)     {source: DE-0431LE-0431}
Center-site name: BODY CENTER
*******************************************************************************
Start time      : A.D. 2015-Jan-01 00:00:00.0000 CT
Stop  time      : A.D. 2018-Jan-03 00:00:00.0000 CT
Step-size       : 8640 minutes
*******************************************************************************
Center geodetic : 0.00000000,0.00000000,0.0000000 {E-lon(deg),Lat(deg),Alt(km)}
Center cylindric: 0.00000000,0.00000000,0.0000000 {E-lon(deg),Dxy(km),Dz(km)}
Center radii    : (undefined)
Output units    : KM-S
Output format   : 02
Reference frame : ICRF/J2000.0
Output type     : GEOMETRIC cartesian states
Coordinate systm: Ecliptic and Mean Equinox of Reference Epoch
*******************************************************************************
JDCT
   X     Y     Z
   VX    VY    VZ
*******************************************************************************
$$SOE
2457797.500000000 = A.D. 2017-Feb-13 00:00:00.0000 (CT)
   1.635697637175506E+08  1.444370096597886E+08 -1.011819701069497E+06
  -1.510765612004630E+01  2.025501789307513E+01  7.949710454033658E-01
2457803.500000000 = A.D. 2017-Feb-19 00:00:00.0000 (CT)
   1.554609910361336E+08  1.546830075991312E+08 -5.982363041823953E+05
  -1.616459312825008E+01  1.926540965604316E+01  8.001731234498521E-01
2457809.500000000 = A.D. 2017-Feb-25 00:00:00.0000 (CT)
   1.468225073582010E+08  1.644026495440405E+08 -1.826825519433692E+05
  -1.715098012635838E+01  1.822523945929408E+01  8.025842113099033E-01
2457815.500000000 = A.D. 2017-Mar-03 00:00:00.0000 (CT)
   1.376913337241485E+08  1.735711437482997E+08  2.334134613698497E+05
  -1.806516632610338E+01  1.713997311398308E+01  8.022783338833737E-01
2457821.500000000 = A.D. 2017-Mar-09 00:00:00.0000 (CT)
   1.281052293657543E+08  1.821665115906074E+08  6.486644753502160E+05
  -1.890594944201776E+01  1.601499166888436E+01  7.993387480439544E-01
2457827.500000000 = A.D. 2017-Mar-15 00:00:00.0000 (CT)
   1.181024673442368E+08  1.901695344245557E+08  1.061728456646919E+06
  -1.967254394404965E+01  1.485555684844577E+01  7.938564398167776E-01
2457833.500000000 = A.D. 2017-Mar-21 00:00:00.0000 (CT)
   1.077216270918574E+08  1.975636840016022E+08  1.471312233377695E+06
  -2.036454773367713E+01  1.366678220611135E+01  7.859287023175341E-01
2457839.500000000 = A.D. 2017-Mar-27 00:00:00.0000 (CT)
   9.700140446122582E+07  2.043350393646145E+08  1.876174415772468E+06
  -2.098190805129965E+01  1.245360971297513E+01  7.756578056222203E-01
2457845.500000000 = A.D. 2017-Apr-02 00:00:00.0000 (CT)
   8.598043948202823E+07  2.104721929279474E+08  2.275127653956249E+06
  -2.152488737591870E+01  1.122079138789686E+01  7.631497728933798E-01
2457851.500000000 = A.D. 2017-Apr-08 00:00:00.0000 (CT)
   7.469716165830359E+07  2.159661482716689E+08  2.667040292292029E+06
  -2.199402993162451E+01  9.972875649079729E+00  7.485132763369187E-01
2457857.500000000 = A.D. 2017-Apr-14 00:00:00.0000 (CT)
   6.318965238353537E+07  2.208102119969923E+08  3.050837480793610E+06
  -2.239012920633718E+01  8.714197959663842E+00  7.318586450653575E-01
2457863.500000000 = A.D. 2017-Apr-20 00:00:00.0000 (CT)
   5.149552384211681E+07  2.249998817268608E+08  3.425501800758600E+06
  -2.271419689380271E+01  7.448875226730443E+00  7.132969838721435E-01
2457869.500000000 = A.D. 2017-Apr-26 00:00:00.0000 (CT)
   3.965181357039292E+07  2.285327320754495E+08  3.790073462870628E+06
  -2.296743357747119E+01  6.180803493083278E+00  6.929394046502275E-01
2457875.500000000 = A.D. 2017-May-02 00:00:00.0000 (CT)
   2.769489371910060E+07  2.314083001791566E+08  4.143650135126770E+06
  -2.315120135471044E+01  4.913658479806799E+00  6.708963658081175E-01
2457881.500000000 = A.D. 2017-May-08 00:00:00.0000 (CT)
   1.566039397568452E+07  2.336279721532658E+08  4.485386454919115E+06
  -2.326699852857143E+01  3.650898544146845E+00  6.472771131825978E-01
2457887.500000000 = A.D. 2017-May-14 00:00:00.0000 (CT)
   3.583137054545472E+06  2.351948716187787E+08  4.814493276081517E+06
  -2.331643643548055E+01  2.395769642698189E+00  6.221892153980048E-01
2457893.500000000 = A.D. 2017-May-20 00:00:00.0000 (CT)
  -8.502914358494248E+06  2.361137512397746E+08  5.130236697936356E+06
  -2.330121842593991E+01  1.151311923033891E+00  5.957381861791077E-01
2457899.500000000 = A.D. 2017-May-26 00:00:00.0000 (CT)
  -2.056470031874675E+07  2.363908880255103E+08  5.431936919414058E+06
  -2.322312097315636E+01 -7.963239725366184E-02  5.680271858660829E-01
2457905.500000000 = A.D. 2017-Jun-01 00:00:00.0000 (CT)
  -3.257009708150810E+07  2.360339829841679E+08  5.718966957285017E+06
  -2.308397685135467E+01 -1.294410168519711E+00  5.391567943502502E-01
2457911.500000000 = A.D. 2017-Jun-07 00:00:00.0000 (CT)
  -4.448794235948144E+07  2.350520655667216E+08  5.990751263546556E+06
  -2.288566030064986E+01 -2.490547732525699E+00  5.092248478409300E-01
2457917.500000000 = A.D. 2017-Jun-13 00:00:00.0000 (CT)
  -5.628805338317584E+07  2.334554032093828E+08  6.246764273158759E+06
  -2.263007407819433E+01 -3.665740864495513E+00  4.783263322150799E-01
2457923.500000000 = A.D. 2017-Jun-19 00:00:00.0000 (CT)
  -6.794123871415357E+07  2.312554161714386E+08  6.486528909688741E+06
  -2.231913828678748E+01 -4.817844430574012E+00  4.465533261345018E-01
2457929.500000000 = A.D. 2017-Jun-25 00:00:00.0000 (CT)
  -7.941930470263384E+07  2.284645977743975E+08  6.709615072783977E+06
  -2.195478086230376E+01 -5.944861914608301E+00  4.139949864477532E-01
2457935.500000000 = A.D. 2017-Jul-01 00:00:00.0000 (CT)
  -9.069505741196622E+07  2.250964400736625E+08  6.915638127327636E+06
  -2.153892957063706E+01 -7.044934961128507E+00  3.807375684258520E-01
2457941.500000000 = A.D. 2017-Jul-07 00:00:00.0000 (CT)
  -1.017423007568949E+08  2.211653649082086E+08  7.104257411724046E+06
  -2.107350539139646E+01 -8.116333107463344E+00  3.468644794365079E-01
2457947.500000000 = A.D. 2017-Jul-13 00:00:00.0000 (CT)
  -1.125358315583524E+08  2.166866602089167E+08  7.275174782016069E+06
  -2.056041722239146E+01 -9.157443762226098E+00  3.124563618732794E-01
2457953.500000000 = A.D. 2017-Jul-19 00:00:00.0000 (CT)
  -1.230514321657200E+08  2.116764214345684E+08  7.428133204420343E+06
  -2.000155776287649E+01 -1.016676245774940E+01  2.775911960086517E-01
2457959.500000000 = A.D. 2017-Jul-25 00:00:00.0000 (CT)
  -1.332658612202852E+08  2.061514979689838E+08  7.562915405691907E+06
  -1.939880044228207E+01 -1.114288347177967E+01  2.423444200954581E-01
2457965.500000000 = A.D. 2017-Jul-31 00:00:00.0000 (CT)
  -1.431568430778899E+08  2.001294442708022E+08  7.679342589840770E+06
  -1.875399730391443E+01 -1.208449087561811E+01  2.067890657463769E-01
2457971.500000000 = A.D. 2017-Aug-06 00:00:00.0000 (CT)
  -1.527030563626375E+08  1.936284755473884E+08  7.777273228295222E+06
  -1.806897775386145E+01 -1.299035003555760E+01  1.709959053930445E-01
2457977.500000000 = A.D. 2017-Aug-12 00:00:00.0000 (CT)
  -1.618841220773177E+08  1.866674277124092E+08  7.856601929013036E+06
  -1.734554808793943E+01 -1.385929958792343E+01  1.350336089832629E-01
2457983.500000000 = A.D. 2017-Aug-18 00:00:00.0000 (CT)
  -1.706805916528744E+08  1.792657213774061E+08  7.917258388706170E+06
  -1.658549171695516E+01 -1.469024390282661E+01  9.896890758378785E-02
2457989.500000000 = A.D. 2017-Aug-24 00:00:00.0000 (CT)
  -1.790739352799840E+08  1.714433296212743E+08  7.959206431237683E+06
  -1.579057001851414E+01 -1.548214604637734E+01  6.286676193223073E-02
2457995.500000000 = A.D. 2017-Aug-30 00:00:00.0000 (CT)
  -1.870465308305748E+08  1.632207492776954E+08  7.982443134314828E+06
  -1.496252375110142E+01 -1.623402124671094E+01  2.679053427992084E-02
2458001.500000000 = A.D. 2017-Sep-05 00:00:00.0000 (CT)
  -1.945816536456216E+08  1.546189754786432E+08  7.986998045810863E+06
  -1.410307497311007E+01 -1.694493086617702E+01 -9.197837873320402E-03
2458007.500000000 = A.D. 2017-Sep-11 00:00:00.0000 (CT)
  -2.016634674375603E+08  1.456594791912988E+08  7.972932490383290E+06
  -1.321392941620269E+01 -1.761397688061655E+01 -4.503766733170966E-02
2458013.500000000 = A.D. 2017-Sep-17 00:00:00.0000 (CT)
  -2.082770165314474E+08  1.363641874853709E+08  7.940338966478847E+06
  -1.229677927082883E+01 -1.824029686608856E+01 -8.066934312341889E-02
2458019.500000000 = A.D. 2017-Sep-23 00:00:00.0000 (CT)
  -2.144082196505812E+08  1.267554662683013E+08  7.889340633201525E+06
  -1.135330635581040E+01 -1.882305948950381E+01 -1.160341581607298E-01
2458025.500000000 = A.D. 2017-Sep-29 00:00:00.0000 (CT)
  -2.200438654400044E+08  1.168561052306968E+08  7.820090885724142E+06
  -1.038518564775648E+01 -1.936146048753550E+01 -1.510741401411080E-01
2458031.500000000 = A.D. 2017-Oct-05 00:00:00.0000 (CT)
  -2.251716099017339E+08  1.066893047522539E+08  7.732773017548479E+06
  -9.394089115763478E+00 -1.985471912597181E+01 -1.857318853245156E-01
2458037.500000000 = A.D. 2017-Oct-11 00:00:00.0000 (CT)
  -2.297799758856719E+08  9.627866451337248E+07  7.627599968381710E+06
  -8.381689815457953E+00 -2.030207516397176E+01 -2.199503946978485E-01
2458043.500000000 = A.D. 2017-Oct-17 00:00:00.0000 (CT)
  -2.338583547709838E+08  8.564817354893303E+07  7.504814155677348E+06
  -7.349666245599574E+00 -2.070278632126838E+01 -2.536729155769972E-01
2458049.500000000 = A.D. 2017-Oct-23 00:00:00.0000 (CT)
  -2.373970104672827E+08  7.482220148971231E+07  7.364687386603285E+06
  -6.299706930166264E+00 -2.105612622981376E+01 -2.868427894408105E-01
